STARLINK-1434           
1 45712U 20035BH  26068.24137979  .00054112  00000+0  20295-2 0  9995
2 45712  53.0547  22.1128 0005343  88.0400 272.1210 15.26724568319325
STARLINK-32803          
1 63024U 25032V   26067.45477563  .00046973  00000+0  17047-2 0  9998
2 63024  43.0009 342.8063 0001659  37.5276 322.5691 15.27597366 60274
